{"fetched_at":"2026-07-19T17:31:11.372Z","source":"https://celestrak.org/NORAD/elements/gp.php?GROUP=planet&FORMAT=JSON","constellation":"superdove","records":[{"OBJECT_NAME":"FLOCK 4G-23","OBJECT_ID":"2025-009AQ","EPOCH":"2026-07-19T04:55:10.540704","CLASSIFICATION_TYPE":"U","MEAN_MOTION":15.34958689,"ECCENTRICITY":0.00034851,"INCLINATION":97.3914,"RA_OF_ASC_NODE":281.9038,"ARG_OF_PERICENTER":163.4493,"MEAN_ANOMALY":196.6864,"EPHEMERIS_TYPE":0,"NORAD_CAT_ID":62647,"ELEMENT_SET_NO":999,"REV_AT_EPOCH":8383,"BSTAR":0.00066818189,"MEAN_MOTION_DOT":0.00022621,"MEAN_MOTION_DDOT":0},{"OBJECT_NAME":"FLOCK 4G-34","OBJECT_ID":"2025-009AT","EPOCH":"2026-07-19T04:21:31.101408","CLASSIFICATION_TYPE":"U","MEAN_MOTION":15.29820593,"ECCENTRICITY":0.00027249,"INCLINATION":97.3955,"RA_OF_ASC_NODE":281.6122,"ARG_OF_PERICENTER":153.9081,"MEAN_ANOMALY":206.2297,"EPHEMERIS_TYPE":0,"NORAD_CAT_ID":62650,"ELEMENT_SET_NO":999,"REV_AT_EPOCH":8380,"BSTAR":0.00019387284,"MEAN_MOTION_DOT":0.00005523,"MEAN_MOTION_DDOT":0},{"OBJECT_NAME":"FLOCK 4G-21","OBJECT_ID":"2025-009AU","EPOCH":"2026-07-19T05:21:14.251104","CLASSIFICATION_TYPE":"U","MEAN_MOTION":15.33037916,"ECCENTRICITY":0.0003535,"INCLINATION":97.398,"RA_OF_ASC_NODE":282.6775,"ARG_OF_PERICENTER":179.1026,"MEAN_ANOMALY":181.0223,"EPHEMERIS_TYPE":0,"NORAD_CAT_ID":62651,"ELEMENT_SET_NO":999,"REV_AT_EPOCH":8386,"BSTAR":0.00061174869,"MEAN_MOTION_DOT":0.00019476,"MEAN_MOTION_DDOT":0},{"OBJECT_NAME":"FLOCK 4G-31","OBJECT_ID":"2025-009AV","EPOCH":"2026-07-19T05:05:18.393216","CLASSIFICATION_TYPE":"U","MEAN_MOTION":15.29625808,"ECCENTRICITY":0.000226,"INCLINATION":97.3959,"RA_OF_ASC_NODE":281.6135,"ARG_OF_PERICENTER":151.6639,"MEAN_ANOMALY":208.4725,"EPHEMERIS_TYPE":0,"NORAD_CAT_ID":62652,"ELEMENT_SET_NO":999,"REV_AT_EPOCH":8380,"BSTAR":0.00018875327,"MEAN_MOTION_DOT":0.00005342,"MEAN_MOTION_DDOT":0},{"OBJECT_NAME":"FLOCK 4G-4","OBJECT_ID":"2025-009BC","EPOCH":"2026-07-19T04:15:45.917856","CLASSIFICATION_TYPE":"U","MEAN_MOTION":15.32309095,"ECCENTRICITY":0.00050475,"INCLINATION":97.3937,"RA_OF_ASC_NODE":281.4052,"ARG_OF_PERICENTER":180.0134,"MEAN_ANOMALY":180.1109,"EPHEMERIS_TYPE":0,"NORAD_CAT_ID":62659,"ELEMENT_SET_NO":999,"REV_AT_EPOCH":14140,"BSTAR":0.00062777019,"MEAN_MOTION_DOT":0.0001954,"MEAN_MOTION_DDOT":0},{"OBJECT_NAME":"FLOCK 4G-6","OBJECT_ID":"2025-009BD","EPOCH":"2026-07-19T04:48:13.512096","CLASSIFICATION_TYPE":"U","MEAN_MOTION":15.30017435,"ECCENTRICITY":0.000331,"INCLINATION":97.3932,"RA_OF_ASC_NODE":281.4547,"ARG_OF_PERICENTER":186.8669,"MEAN_ANOMALY":173.2527,"EPHEMERIS_TYPE":0,"NORAD_CAT_ID":62660,"ELEMENT_SET_NO":999,"REV_AT_EPOCH":14139,"BSTAR":0.00016878384,"MEAN_MOTION_DOT":0.00004828,"MEAN_MOTION_DDOT":0},{"OBJECT_NAME":"FLOCK 4G-2","OBJECT_ID":"2025-009BE","EPOCH":"2026-07-19T04:37:40.461024","CLASSIFICATION_TYPE":"U","MEAN_MOTION":15.30374941,"ECCENTRICITY":0.00041567,"INCLINATION":97.4001,"RA_OF_ASC_NODE":282.0951,"ARG_OF_PERICENTER":187.2379,"MEAN_ANOMALY":172.8803,"EPHEMERIS_TYPE":0,"NORAD_CAT_ID":62661,"ELEMENT_SET_NO":999,"REV_AT_EPOCH":14142,"BSTAR":0.0001950461,"MEAN_MOTION_DOT":0.00005654,"MEAN_MOTION_DDOT":0},{"OBJECT_NAME":"FLOCK 4G-5","OBJECT_ID":"2025-009BG","EPOCH":"2026-07-19T04:28:11.373600","CLASSIFICATION_TYPE":"U","MEAN_MOTION":15.30946608,"ECCENTRICITY":0.0003893,"INCLINATION":97.4019,"RA_OF_ASC_NODE":282.4929,"ARG_OF_PERICENTER":169.0712,"MEAN_ANOMALY":191.0614,"EPHEMERIS_TYPE":0,"NORAD_CAT_ID":62663,"ELEMENT_SET_NO":999,"REV_AT_EPOCH":8383,"BSTAR":0.00016349372,"MEAN_MOTION_DOT":0.00004811,"MEAN_MOTION_DDOT":0},{"OBJECT_NAME":"FLOCK 4G-1","OBJECT_ID":"2025-009BK","EPOCH":"2026-07-19T04:16:26.618304","CLASSIFICATION_TYPE":"U","MEAN_MOTION":15.30234556,"ECCENTRICITY":0.00044142,"INCLINATION":97.4013,"RA_OF_ASC_NODE":282.0594,"ARG_OF_PERICENTER":184.8467,"MEAN_ANOMALY":175.2732,"EPHEMERIS_TYPE":0,"NORAD_CAT_ID":62666,"ELEMENT_SET_NO":999,"REV_AT_EPOCH":8380,"BSTAR":0.0001987931,"MEAN_MOTION_DOT":0.00005739,"MEAN_MOTION_DDOT":0},{"OBJECT_NAME":"FLOCK 4G-14","OBJECT_ID":"2025-009BL","EPOCH":"2026-07-19T05:02:55.780512","CLASSIFICATION_TYPE":"U","MEAN_MOTION":15.29782374,"ECCENTRICITY":0.00045893,"INCLINATION":97.4016,"RA_OF_ASC_NODE":281.8853,"ARG_OF_PERICENTER":180.3897,"MEAN_ANOMALY":179.7341,"EPHEMERIS_TYPE":0,"NORAD_CAT_ID":62667,"ELEMENT_SET_NO":999,"REV_AT_EPOCH":8379,"BSTAR":0.00019020296,"MEAN_MOTION_DOT":0.00005411,"MEAN_MOTION_DDOT":0},{"OBJECT_NAME":"FLOCK 4G-10","OBJECT_ID":"2025-009BP","EPOCH":"2026-07-19T05:18:15.552576","CLASSIFICATION_TYPE":"U","MEAN_MOTION":15.29885022,"ECCENTRICITY":0.00041639,"INCLINATION":97.3914,"RA_OF_ASC_NODE":281.1889,"ARG_OF_PERICENTER":196.7132,"MEAN_ANOMALY":163.3972,"EPHEMERIS_TYPE":0,"NORAD_CAT_ID":62670,"ELEMENT_SET_NO":999,"REV_AT_EPOCH":14143,"BSTAR":0.00019744986,"MEAN_MOTION_DOT":0.00005638,"MEAN_MOTION_DDOT":0},{"OBJECT_NAME":"FLOCK 4G-36","OBJECT_ID":"2025-009BU","EPOCH":"2026-07-19T05:10:28.443936","CLASSIFICATION_TYPE":"U","MEAN_MOTION":15.2985972,"ECCENTRICITY":0.00047394,"INCLINATION":97.4004,"RA_OF_ASC_NODE":281.8122,"ARG_OF_PERICENTER":185.9539,"MEAN_ANOMALY":174.1646,"EPHEMERIS_TYPE":0,"NORAD_CAT_ID":62675,"ELEMENT_SET_NO":999,"REV_AT_EPOCH":8379,"BSTAR":0.00019437104,"MEAN_MOTION_DOT":0.00005545,"MEAN_MOTION_DDOT":0},{"OBJECT_NAME":"FLOCK 4G-15","OBJECT_ID":"2025-009BX","EPOCH":"2026-07-19T05:20:07.074240","CLASSIFICATION_TYPE":"U","MEAN_MOTION":15.29949337,"ECCENTRICITY":0.00049697,"INCLINATION":97.4006,"RA_OF_ASC_NODE":281.9623,"ARG_OF_PERICENTER":182.7284,"MEAN_ANOMALY":177.3931,"EPHEMERIS_TYPE":0,"NORAD_CAT_ID":62678,"ELEMENT_SET_NO":999,"REV_AT_EPOCH":14144,"BSTAR":0.00019410443,"MEAN_MOTION_DOT":0.00005553,"MEAN_MOTION_DDOT":0},{"OBJECT_NAME":"FLOCK 4G-30","OBJECT_ID":"2025-009BY","EPOCH":"2026-07-19T05:16:56.366112","CLASSIFICATION_TYPE":"U","MEAN_MOTION":15.3413423,"ECCENTRICITY":0.00046783,"INCLINATION":97.3902,"RA_OF_ASC_NODE":281.502,"ARG_OF_PERICENTER":184.5066,"MEAN_ANOMALY":175.6136,"EPHEMERIS_TYPE":0,"NORAD_CAT_ID":62679,"ELEMENT_SET_NO":999,"REV_AT_EPOCH":14145,"BSTAR":0.0006420982,"MEAN_MOTION_DOT":0.00021173,"MEAN_MOTION_DDOT":0},{"OBJECT_NAME":"FLOCK 4G-18","OBJECT_ID":"2025-009BZ","EPOCH":"2026-07-19T04:10:15.160512","CLASSIFICATION_TYPE":"U","MEAN_MOTION":15.32371837,"ECCENTRICITY":0.00064851,"INCLINATION":97.3997,"RA_OF_ASC_NODE":281.8455,"ARG_OF_PERICENTER":197.2049,"MEAN_ANOMALY":162.8974,"EPHEMERIS_TYPE":0,"NORAD_CAT_ID":62680,"ELEMENT_SET_NO":999,"REV_AT_EPOCH":14143,"BSTAR":0.00065553644,"MEAN_MOTION_DOT":0.00020456,"MEAN_MOTION_DDOT":0},{"OBJECT_NAME":"FLOCK 4G-17","OBJECT_ID":"2025-009CA","EPOCH":"2026-07-19T04:23:15.413856","CLASSIFICATION_TYPE":"U","MEAN_MOTION":15.30130329,"ECCENTRICITY":0.00044785,"INCLINATION":97.3911,"RA_OF_ASC_NODE":281.3897,"ARG_OF_PERICENTER":197.6049,"MEAN_ANOMALY":162.5037,"EPHEMERIS_TYPE":0,"NORAD_CAT_ID":62681,"ELEMENT_SET_NO":999,"REV_AT_EPOCH":14144,"BSTAR":0.00019498031,"MEAN_MOTION_DOT":0.00005609,"MEAN_MOTION_DDOT":0}]}
