FLOCK 4G-23             
1 62647U 25009AQ  26200.20498311  .00022621  00000+0  66818-3 0  9993
2 62647  97.3914 281.9038 0003485 163.4493 196.6864 15.34958689 83831
FLOCK 4G-34             
1 62650U 25009AT  26200.18160997  .00005523  00000+0  19387-3 0  9991
2 62650  97.3955 281.6122 0002724 153.9081 206.2297 15.29820593 83804
FLOCK 4G-21             
1 62651U 25009AU  26200.22308161  .00019476  00000+0  61175-3 0  9998
2 62651  97.3980 282.6775 0003535 179.1026 181.0223 15.33037916 83867
FLOCK 4G-31             
1 62652U 25009AV  26200.21201844  .00005342  00000+0  18875-3 0  9994
2 62652  97.3959 281.6135 0002260 151.6639 208.4725 15.29625808 83805
FLOCK 4G-4              
1 62659U 25009BC  26200.17761479  .00019540  00000+0  62777-3 0  9996
2 62659  97.3937 281.4052 0005047 180.0134 180.1109 15.32309095141400
FLOCK 4G-6              
1 62660U 25009BD  26200.20015639  .00004828  00000+0  16878-3 0  9996
2 62660  97.3932 281.4547 0003310 186.8669 173.2527 15.30017435141391
FLOCK 4G-2              
1 62661U 25009BE  26200.19282941  .00005654  00000+0  19505-3 0  9995
2 62661  97.4001 282.0951 0004156 187.2379 172.8803 15.30374941141422
FLOCK 4G-5              
1 62663U 25009BG  26200.18624275  .00004811  00000+0  16349-3 0  9993
2 62663  97.4019 282.4929 0003893 169.0712 191.0614 15.30946608 83836
FLOCK 4G-1              
1 62666U 25009BK  26200.17808586  .00005739  00000+0  19879-3 0  9995
2 62666  97.4013 282.0594 0004414 184.8467 175.2732 15.30234556 83803
FLOCK 4G-14             
1 62667U 25009BL  26200.21036783  .00005411  00000+0  19020-3 0  9998
2 62667  97.4016 281.8853 0004589 180.3897 179.7341 15.29782374 83790
FLOCK 4G-10             
1 62670U 25009BP  26200.22101334  .00005638  00000+0  19745-3 0  9993
2 62670  97.3914 281.1889 0004163 196.7132 163.3972 15.29885022141432
FLOCK 4G-36             
1 62675U 25009BU  26200.21560699  .00005545  00000+0  19437-3 0  9995
2 62675  97.4004 281.8122 0004739 185.9539 174.1646 15.29859720 83793
FLOCK 4G-15             
1 62678U 25009BX  26200.22230410  .00005553  00000+0  19410-3 0  9994
2 62678  97.4006 281.9623 0004969 182.7284 177.3931 15.29949337141445
FLOCK 4G-30             
1 62679U 25009BY  26200.22009683  .00021173  00000+0  64210-3 0  9995
2 62679  97.3902 281.5020 0004678 184.5066 175.6136 15.34134230141455
FLOCK 4G-18             
1 62680U 25009BZ  26200.17378658  .00020456  00000+0  65554-3 0  9997
2 62680  97.3997 281.8455 0006485 197.2049 162.8974 15.32371837141436
FLOCK 4G-17             
1 62681U 25009CA  26200.18281729  .00005609  00000+0  19498-3 0  9990
2 62681  97.3911 281.3897 0004478 197.6049 162.5037 15.30130329141447
